{"type":"FeatureCollection","properties":{"district_code":"22","district_name":"ESPECIAL","tree_count":175},"features":[{"type":"Feature","properties":{"nb":"PALACIO","cn":"Abedul de la Dehesa Comunal","d":0.0,"h":0.0,"sn":"Betula ssp."},"geometry":{"type":"Point","coordinates":[-3.593208,41.117405]}},{"type":"Feature","properties":{"nb":"PALACIO","cn":"Abedul de la Dehesa de Somosierra I","d":0.0,"h":0.0,"sn":"Betula alba"},"geometry":{"type":"Point","coordinates":[-3.570451,41.123922]}},{"type":"Feature","properties":{"nb":"PALACIO","cn":"Abedul de la Dehesa de Somosierra II","d":0.0,"h":0.0,"sn":"Betula alba"},"geometry":{"type":"Point","coordinates":[-3.572634,41.123924]}},{"type":"Feature","properties":{"nb":"PALACIO","cn":"Abedul del Arroyo del Toril I","d":0.0,"h":0.0,"sn":"Betula alba"},"geometry":{"type":"Point","coordinates":[-3.788131,40.868383]}},{"type":"Feature","properties":{"nb":"PALACIO","cn":"Abedul del Arroyo del Toril II","d":0.0,"h":0.0,"sn":"Betula alba"},"geometry":{"type":"Point","coordinates":[-3.78816,40.868399]}},{"type":"Feature","properties":{"nb":"PALACIO","cn":"Abeto de Douglas de La Cebedilla I","d":0.0,"h":0.0,"sn":"Pseudotsuga menziesii"},"geometry":{"type":"Point","coordinates":[-3.829154,40.971887]}},{"type":"Feature","properties":{"nb":"PALACIO","cn":"Abeto de Douglas de La Cebedilla II","d":0.0,"h":0.0,"sn":"Pseudotsuga menziesii"},"geometry":{"type":"Point","coordinates":[-3.829182,40.971877]}},{"type":"Feature","properties":{"nb":"PALACIO","cn":"Abeto de Douglas de La Cebedilla III","d":0.0,"h":0.0,"sn":"Pseudotsuga menziesii"},"geometry":{"type":"Point","coordinates":[-3.829078,40.971769]}},{"type":"Feature","properties":{"nb":"PALACIO","cn":"Abeto del Cáucaso de la Casita del Príncipe I","d":0.0,"h":0.0,"sn":"Abies nordmanniana"},"geometry":{"type":"Point","coordinates":[-4.13615,40.583992]}},{"type":"Feature","properties":{"nb":"PALACIO","cn":"Abeto del Cáucaso de la Casita del Príncipe II","d":0.0,"h":0.0,"sn":"Abies nordmanniana"},"geometry":{"type":"Point","coordinates":[-4.136296,40.584005]}},{"type":"Feature","properties":{"nb":"PALACIO","cn":"Abeto del Cáucaso de Peña Alta","d":0.0,"h":0.0,"sn":"Abies nordmanniana"},"geometry":{"type":"Point","coordinates":[-3.801372,40.980573]}},{"type":"Feature","properties":{"nb":"PALACIO","cn":"Abeto Rojo de La Cebedilla I","d":0.0,"h":0.0,"sn":"Picea abies"},"geometry":{"type":"Point","coordinates":[-3.828849,40.972087]}},{"type":"Feature","properties":{"nb":"PALACIO","cn":"Abeto Rojo de La Cebedilla II","d":0.0,"h":0.0,"sn":"Picea abies"},"geometry":{"type":"Point","coordinates":[-3.828793,40.972131]}},{"type":"Feature","properties":{"nb":"PALACIO","cn":"Acebo de Las Cerradillas","d":0.0,"h":0.0,"sn":"Ilex aquifolium"},"geometry":{"type":"Point","coordinates":[-3.874567,40.750679]}},{"type":"Feature","properties":{"nb":"PALACIO","cn":"Acebo del Puerto de Canencia","d":0.0,"h":0.0,"sn":"Ilex aquifolium"},"geometry":{"type":"Point","coordinates":[-3.779479,40.873439]}},{"type":"Feature","properties":{"nb":"PALACIO","cn":"Acebo del Río Manzanares","d":0.0,"h":0.0,"sn":"Ilex aquifolium"},"geometry":{"type":"Point","coordinates":[-3.921453,40.773106]}},{"type":"Feature","properties":{"nb":"PALACIO","cn":"Ahuehuete de los Chinescos","d":0.0,"h":0.0,"sn":"Taxodium mucronatum"},"geometry":{"type":"Point","coordinates":[-3.593743,40.040709]}},{"type":"Feature","properties":{"nb":"PALACIO","cn":"Ahuehuete de Los Jardinillos","d":0.0,"h":0.0,"sn":"Taxodium mucronatum"},"geometry":{"type":"Point","coordinates":[-3.596098,40.038151]}},{"type":"Feature","properties":{"nb":"PALACIO","cn":"Alcornoque de la Dehesa de la Jara","d":0.0,"h":0.0,"sn":"Quercus suber"},"geometry":{"type":"Point","coordinates":[-4.044272,40.688864]}},{"type":"Feature","properties":{"nb":"PALACIO","cn":"Alcornoque de las Casiruelas","d":0.0,"h":0.0,"sn":"Quercus suber"},"geometry":{"type":"Point","coordinates":[-3.901368,40.748066]}},{"type":"Feature","properties":{"nb":"PALACIO","cn":"Alcornoque de Prado Guerrero","d":0.0,"h":0.0,"sn":"Quercus suber"},"geometry":{"type":"Point","coordinates":[-3.968888,40.715515]}},{"type":"Feature","properties":{"nb":"PALACIO","cn":"Alcornoque de Romanillos I","d":0.0,"h":0.0,"sn":"Quercus suber"},"geometry":{"type":"Point","coordinates":[-3.951485,40.432708]}},{"type":"Feature","properties":{"nb":"PALACIO","cn":"Alcornoque de Romanillos II","d":0.0,"h":0.0,"sn":"Quercus suber"},"geometry":{"type":"Point","coordinates":[-3.94385,40.418824]}},{"type":"Feature","properties":{"nb":"PALACIO","cn":"Alerce del Vivero de Mojonavalle","d":0.0,"h":0.0,"sn":"Larix decidua"},"geometry":{"type":"Point","coordinates":[-3.791442,40.869124]}},{"type":"Feature","properties":{"nb":"PALACIO","cn":"Almendro del Parque","d":0.0,"h":0.0,"sn":"Prunus dulcis"},"geometry":{"type":"Point","coordinates":[-4.146442,40.590087]}},{"type":"Feature","properties":{"nb":"PALACIO","cn":"Almez de La Arganzuela","d":0.0,"h":0.0,"sn":"Celtis australis"},"geometry":{"type":"Point","coordinates":[-3.710015,40.397768]}},{"type":"Feature","properties":{"nb":"PALACIO","cn":"Almez del Casino de la Reina","d":0.0,"h":0.0,"sn":"Celtis australis"},"geometry":{"type":"Point","coordinates":[-3.704767,40.406511]}},{"type":"Feature","properties":{"nb":"PALACIO","cn":"Árbol del Amor del Parque","d":0.0,"h":0.0,"sn":"Cercis siliquastrum"},"geometry":{"type":"Point","coordinates":[-4.146272,40.590066]}},{"type":"Feature","properties":{"nb":"PALACIO","cn":"Arce de Los Horcajuelos","d":0.0,"h":0.0,"sn":"Acer monspessulanum"},"geometry":{"type":"Point","coordinates":[-3.645134,41.037624]}},{"type":"Feature","properties":{"nb":"PALACIO","cn":"Arce Plateado de Los Jardines de Cecilio Rodríguez","d":0.0,"h":0.0,"sn":"Acer saccharinum"},"geometry":{"type":"Point","coordinates":[-3.678499,40.41396]}},{"type":"Feature","properties":{"nb":"PALACIO","cn":"Bardaguera Blanca de Braojos","d":0.0,"h":0.0,"sn":"Salix salviifolia"},"geometry":{"type":"Point","coordinates":[-3.645112,41.041838]}},{"type":"Feature","properties":{"nb":"PALACIO","cn":"Butia del Real Jardín Botánico","d":0.0,"h":0.0,"sn":"Butia capitata"},"geometry":{"type":"Point","coordinates":[-3.689707,40.411268]}},{"type":"Feature","properties":{"nb":"PALACIO","cn":"Caqui de Virginia de los Chinescos","d":0.0,"h":0.0,"sn":"Diospyros virginiana"},"geometry":{"type":"Point","coordinates":[-3.593999,40.040351]}},{"type":"Feature","properties":{"nb":"PALACIO","cn":"Castaño de Indias de Collado Mediano","d":0.0,"h":0.0,"sn":"Aesculus hippocastanum"},"geometry":{"type":"Point","coordinates":[-4.023133,40.693531]}},{"type":"Feature","properties":{"nb":"PALACIO","cn":"Castaño de Indias del Parque Adolfo Suárez I","d":0.0,"h":0.0,"sn":"Aesculus hippocastanum"},"geometry":{"type":"Point","coordinates":[-4.150991,40.588022]}},{"type":"Feature","properties":{"nb":"PALACIO","cn":"Castaño de Indias del Parque Adolfo Suárez II","d":0.0,"h":0.0,"sn":"Aesculus hippocastanum"},"geometry":{"type":"Point","coordinates":[-4.150958,40.58798]}},{"type":"Feature","properties":{"nb":"PALACIO","cn":"Castaño de la Fuente del Rey","d":0.0,"h":0.0,"sn":"Castanea sativa"},"geometry":{"type":"Point","coordinates":[-4.173564,40.552548]}},{"type":"Feature","properties":{"nb":"PALACIO","cn":"Castaño de la Gutera","d":0.0,"h":0.0,"sn":"Castanea sativa"},"geometry":{"type":"Point","coordinates":[-3.457125,41.016994]}},{"type":"Feature","properties":{"nb":"PALACIO","cn":"Castaño de las Machotas I","d":0.0,"h":0.0,"sn":"Castanea sativa"},"geometry":{"type":"Point","coordinates":[-4.163187,40.564185]}},{"type":"Feature","properties":{"nb":"PALACIO","cn":"Castaño de las Machotas II","d":0.0,"h":0.0,"sn":"Castanea sativa"},"geometry":{"type":"Point","coordinates":[-4.163207,40.563865]}},{"type":"Feature","properties":{"nb":"PALACIO","cn":"Castaño del Cotanillo","d":0.0,"h":0.0,"sn":"Castanea sativa"},"geometry":{"type":"Point","coordinates":[-4.17897,40.557323]}},{"type":"Feature","properties":{"nb":"PALACIO","cn":"Cedro de los Jardines de Vista Alegre","d":0.0,"h":0.0,"sn":"Cedrus libanotica"},"geometry":{"type":"Point","coordinates":[-3.739215,40.382644]}},{"type":"Feature","properties":{"nb":"PALACIO","cn":"Cedro del Líbano de la Casita de Arriba","d":0.0,"h":0.0,"sn":"Cedrus libani"},"geometry":{"type":"Point","coordinates":[-4.158003,40.584798]}},{"type":"Feature","properties":{"nb":"PALACIO","cn":"Cedro del Parque del Retiro","d":0.0,"h":0.0,"sn":"Cedrus libanotica"},"geometry":{"type":"Point","coordinates":[-3.680895,40.417358]}},{"type":"Feature","properties":{"nb":"PALACIO","cn":"Cerezo de la Mala Colá","d":0.0,"h":0.0,"sn":"Prunus avium"},"geometry":{"type":"Point","coordinates":[-3.4432,41.00726]}},{"type":"Feature","properties":{"nb":"PALACIO","cn":"Cerezo del Puente de las Cabras","d":0.0,"h":0.0,"sn":"Prunus avium"},"geometry":{"type":"Point","coordinates":[-3.44233,41.005587]}},{"type":"Feature","properties":{"nb":"PALACIO","cn":"Cerezo del Soto de los Frailes","d":0.0,"h":0.0,"sn":"Prunus padus"},"geometry":{"type":"Point","coordinates":[-3.871295,40.89844]}},{"type":"Feature","properties":{"nb":"PALACIO","cn":"Chopo de Don Sergio","d":0.0,"h":0.0,"sn":"Populus nigra"},"geometry":{"type":"Point","coordinates":[-3.529463,40.319338]}},{"type":"Feature","properties":{"nb":"PALACIO","cn":"Chopo de Fuentelasyeguas","d":0.0,"h":0.0,"sn":"Populus x canadensis"},"geometry":{"type":"Point","coordinates":[-4.091662,40.575675]}},{"type":"Feature","properties":{"nb":"PALACIO","cn":"Chopo de La Pellejera II","d":0.0,"h":0.0,"sn":"Populus x canadensis"},"geometry":{"type":"Point","coordinates":[-3.945896,40.373901]}},{"type":"Feature","properties":{"nb":"PALACIO","cn":"Chopo de Oteruelo del Valle","d":0.0,"h":0.0,"sn":"Populus x canadensis"},"geometry":{"type":"Point","coordinates":[-3.851362,40.911983]}},{"type":"Feature","properties":{"nb":"PALACIO","cn":"Chopo de Sacedón","d":0.0,"h":0.0,"sn":"Populus nigra"},"geometry":{"type":"Point","coordinates":[-3.94837,40.362761]}},{"type":"Feature","properties":{"nb":"PALACIO","cn":"Chopo de Torrelaguna","d":0.0,"h":0.0,"sn":"Populus x canadensis"},"geometry":{"type":"Point","coordinates":[-3.535916,40.809609]}},{"type":"Feature","properties":{"nb":"PALACIO","cn":"Chopo de Villanueva de Perales","d":0.0,"h":0.0,"sn":"Populus nigra"},"geometry":{"type":"Point","coordinates":[-4.091905,40.401273]}},{"type":"Feature","properties":{"nb":"PALACIO","cn":"Chopo del Ayuntamiento","d":0.0,"h":0.0,"sn":"Populus x canadensis"},"geometry":{"type":"Point","coordinates":[-3.818222,40.926453]}},{"type":"Feature","properties":{"nb":"PALACIO","cn":"Chopo del Río","d":0.0,"h":0.0,"sn":"Populus x canadensis"},"geometry":{"type":"Point","coordinates":[-3.307732,40.242771]}},{"type":"Feature","properties":{"nb":"PALACIO","cn":"Ciprés Calvo del Estanque del Palacio de Cristal","d":0.0,"h":0.0,"sn":"Taxodium distichum"},"geometry":{"type":"Point","coordinates":[-3.68121,40.413943]}},{"type":"Feature","properties":{"nb":"PALACIO","cn":"Ciprés de Arizona del Castillo de Viñuelas","d":0.0,"h":0.0,"sn":"Cupressus arizonica"},"geometry":{"type":"Point","coordinates":[-3.646174,40.607531]}},{"type":"Feature","properties":{"nb":"PALACIO","cn":"Ciprés de Lawson de la Cebedilla","d":0.0,"h":0.0,"sn":"Chamaecyparis lawsoniana"},"geometry":{"type":"Point","coordinates":[-3.829163,40.971719]}},{"type":"Feature","properties":{"nb":"PALACIO","cn":"Ciprés de Lawson de la Curva del Puente","d":0.0,"h":0.0,"sn":"Chamaecyparis lawsoniana"},"geometry":{"type":"Point","coordinates":[-3.811235,40.979015]}},{"type":"Feature","properties":{"nb":"PALACIO","cn":"Ciprés de los Chinescos","d":0.0,"h":0.0,"sn":"Cupressus sempervirens"},"geometry":{"type":"Point","coordinates":[-3.594589,40.040879]}},{"type":"Feature","properties":{"nb":"PALACIO","cn":"Ciprés del Real Jardín Botánico","d":0.0,"h":0.0,"sn":"Cupressus sempervirens"},"geometry":{"type":"Point","coordinates":[-3.690494,40.411909]}},{"type":"Feature","properties":{"nb":"PALACIO","cn":"El Candelabro de los Jardines de Santa Lucía","d":0.0,"h":0.0,"sn":"Cedrus deodara"},"geometry":{"type":"Point","coordinates":[-3.565412,40.820804]}},{"type":"Feature","properties":{"nb":"PALACIO","cn":"El Roble Viejo","d":0.0,"h":0.0,"sn":"Quercus petraea"},"geometry":{"type":"Point","coordinates":[-3.504206,41.111511]}},{"type":"Feature","properties":{"nb":"PALACIO","cn":"Encina de Ambite","d":0.0,"h":0.0,"sn":"Quercus ilex"},"geometry":{"type":"Point","coordinates":[-3.179113,40.332007]}},{"type":"Feature","properties":{"nb":"PALACIO","cn":"Encina de la Antigua Universidad Central","d":0.0,"h":0.0,"sn":"Quercus ilex"},"geometry":{"type":"Point","coordinates":[-3.70871,40.424926]}},{"type":"Feature","properties":{"nb":"PALACIO","cn":"Encina de la Condesa","d":0.0,"h":0.0,"sn":"Quercus ilex"},"geometry":{"type":"Point","coordinates":[-4.235976,40.300347]}},{"type":"Feature","properties":{"nb":"PALACIO","cn":"Encina de la Huerta","d":0.0,"h":0.0,"sn":"Quercus ilex"},"geometry":{"type":"Point","coordinates":[-3.174554,40.329601]}},{"type":"Feature","properties":{"nb":"PALACIO","cn":"Encina de la Pica","d":0.0,"h":0.0,"sn":"Quercus ilex"},"geometry":{"type":"Point","coordinates":[-3.204393,40.34571]}},{"type":"Feature","properties":{"nb":"PALACIO","cn":"Encina de la Venta del Batán","d":0.0,"h":0.0,"sn":"Quercus ilex"},"geometry":{"type":"Point","coordinates":[-3.75446,40.411715]}},{"type":"Feature","properties":{"nb":"PALACIO","cn":"Encina de las Cercadillas","d":0.0,"h":0.0,"sn":"Quercus ilex"},"geometry":{"type":"Point","coordinates":[-3.584614,40.968285]}},{"type":"Feature","properties":{"nb":"PALACIO","cn":"Encina de Navalagamella","d":0.0,"h":0.0,"sn":"Quercus ilex"},"geometry":{"type":"Point","coordinates":[-4.13976,40.448091]}},{"type":"Feature","properties":{"nb":"PALACIO","cn":"Encina del Mesto","d":0.0,"h":0.0,"sn":"Quercus ilex"},"geometry":{"type":"Point","coordinates":[-4.238241,40.295116]}},{"type":"Feature","properties":{"nb":"PALACIO","cn":"Encina del Puente de Hierro","d":0.0,"h":0.0,"sn":"Quercus ilex"},"geometry":{"type":"Point","coordinates":[-3.7582,40.411322]}},{"type":"Feature","properties":{"nb":"PALACIO","cn":"Encina del Puente de la Culebra","d":0.0,"h":0.0,"sn":"Quercus ilex"},"geometry":{"type":"Point","coordinates":[-3.7709,40.401399]}},{"type":"Feature","properties":{"nb":"PALACIO","cn":"Encina del Trillo","d":0.0,"h":0.0,"sn":"Quercus ilex"},"geometry":{"type":"Point","coordinates":[-3.753141,40.415816]}},{"type":"Feature","properties":{"nb":"PALACIO","cn":"Enebro de los Canalizos","d":0.0,"h":0.0,"sn":"Juniperus oxycedrus"},"geometry":{"type":"Point","coordinates":[-3.758133,40.956158]}},{"type":"Feature","properties":{"nb":"PALACIO","cn":"Enebro del Cerro Valviejo","d":0.0,"h":0.0,"sn":"Juniperus oxycedrus"},"geometry":{"type":"Point","coordinates":[-3.654234,40.634293]}},{"type":"Feature","properties":{"nb":"PALACIO","cn":"Enebro del Depósito","d":0.0,"h":0.0,"sn":"Juniperus oxycedrus"},"geometry":{"type":"Point","coordinates":[-4.198019,40.303719]}},{"type":"Feature","properties":{"nb":"PALACIO","cn":"Eucalipto del Puente","d":0.0,"h":0.0,"sn":"Eucalyptus camaldulensis"},"geometry":{"type":"Point","coordinates":[-4.207153,40.316429]}},{"type":"Feature","properties":{"nb":"PALACIO","cn":"Fresno de Gargantilla del Lozoya","d":0.0,"h":0.0,"sn":"Fraxinus angustifolia"},"geometry":{"type":"Point","coordinates":[-3.713417,40.960511]}},{"type":"Feature","properties":{"nb":"PALACIO","cn":"Fresno de la Dehesa Comunal","d":0.0,"h":0.0,"sn":"Fraxinus angustifolia"},"geometry":{"type":"Point","coordinates":[-4.109096,40.394097]}},{"type":"Feature","properties":{"nb":"PALACIO","cn":"Fresno de La Herrería","d":0.0,"h":0.0,"sn":"Fraxinus angustifolia"},"geometry":{"type":"Point","coordinates":[-4.146222,40.581112]}},{"type":"Feature","properties":{"nb":"PALACIO","cn":"Fresno de la Reguera II","d":0.0,"h":0.0,"sn":"Fraxinus angustifolia"},"geometry":{"type":"Point","coordinates":[-3.658934,41.054467]}},{"type":"Feature","properties":{"nb":"PALACIO","cn":"Fresno del Frontón","d":0.0,"h":0.0,"sn":"Fraxinus angustifolia"},"geometry":{"type":"Point","coordinates":[-3.562417,40.886667]}},{"type":"Feature","properties":{"nb":"PALACIO","cn":"Fresno del Zarzón","d":0.0,"h":0.0,"sn":"Fraxinus angustifolia"},"geometry":{"type":"Point","coordinates":[-3.769388,40.403463]}},{"type":"Feature","properties":{"nb":"PALACIO","cn":"Haya de El Chaparral I","d":0.0,"h":0.0,"sn":"Fagus sylvatica"},"geometry":{"type":"Point","coordinates":[-3.500022,41.115375]}},{"type":"Feature","properties":{"nb":"PALACIO","cn":"Haya de El Chaparral II","d":0.0,"h":0.0,"sn":"Fagus sylvatica"},"geometry":{"type":"Point","coordinates":[-3.501181,41.115892]}},{"type":"Feature","properties":{"nb":"PALACIO","cn":"Haya de El Chaparral III","d":0.0,"h":0.0,"sn":"Fagus sylvatica"},"geometry":{"type":"Point","coordinates":[-3.500601,41.116345]}},{"type":"Feature","properties":{"nb":"PALACIO","cn":"Haya de El Chaparral IV","d":0.0,"h":0.0,"sn":"Fagus sylvatica"},"geometry":{"type":"Point","coordinates":[-3.500001,41.116539]}},{"type":"Feature","properties":{"nb":"PALACIO","cn":"Haya de El Chaparral V","d":0.0,"h":0.0,"sn":"Fagus sylvatica"},"geometry":{"type":"Point","coordinates":[-3.502447,41.11649]}},{"type":"Feature","properties":{"nb":"PALACIO","cn":"Haya del Ancla","d":0.0,"h":0.0,"sn":"Fagus sylvatica"},"geometry":{"type":"Point","coordinates":[-3.501825,41.116167]}},{"type":"Feature","properties":{"nb":"PALACIO","cn":"Higuera de la Ermita de Bellaescusa","d":0.0,"h":0.0,"sn":"Ficus carica"},"geometry":{"type":"Point","coordinates":[-3.200004,40.298662]}},{"type":"Feature","properties":{"nb":"PALACIO","cn":"La Encina Macho","d":0.0,"h":0.0,"sn":"Quercus ilex"},"geometry":{"type":"Point","coordinates":[-4.024625,40.360436]}},{"type":"Feature","properties":{"nb":"PALACIO","cn":"Libocedro del Parque I","d":0.0,"h":0.0,"sn":"Calocedrus decurrens"},"geometry":{"type":"Point","coordinates":[-4.061,40.737311]}},{"type":"Feature","properties":{"nb":"PALACIO","cn":"Libocedro del Parque II","d":0.0,"h":0.0,"sn":"Calocedrus decurrens"},"geometry":{"type":"Point","coordinates":[-4.061467,40.737329]}},{"type":"Feature","properties":{"nb":"PALACIO","cn":"Liquidámbar de la calle Duque de la Victoria","d":0.0,"h":0.0,"sn":"Liquidambar styraciflua"},"geometry":{"type":"Point","coordinates":[-3.591338,40.041757]}},{"type":"Feature","properties":{"nb":"PALACIO","cn":"Liquidámbar de La Isla","d":0.0,"h":0.0,"sn":"Liquidambar styraciflua"},"geometry":{"type":"Point","coordinates":[-3.609402,40.037584]}},{"type":"Feature","properties":{"nb":"PALACIO","cn":"Madroño de la Lancha de la Osa","d":0.0,"h":0.0,"sn":"Arbutus unedo"},"geometry":{"type":"Point","coordinates":[-4.422101,40.276578]}},{"type":"Feature","properties":{"nb":"PALACIO","cn":"Madroño del Cerro Majuelito","d":0.0,"h":0.0,"sn":"Arbutus unedo"},"geometry":{"type":"Point","coordinates":[-4.421956,40.277039]}},{"type":"Feature","properties":{"nb":"PALACIO","cn":"Madroño del Parterre","d":0.0,"h":0.0,"sn":"Arbutus unedo"},"geometry":{"type":"Point","coordinates":[-3.606821,40.035931]}},{"type":"Feature","properties":{"nb":"PALACIO","cn":"Moral de Las Huelgas","d":0.0,"h":0.0,"sn":"Morus nigra"},"geometry":{"type":"Point","coordinates":[-3.732324,40.795985]}},{"type":"Feature","properties":{"nb":"PALACIO","cn":"Moral de Los Robles","d":0.0,"h":0.0,"sn":"Morus nigra"},"geometry":{"type":"Point","coordinates":[-4.213026,40.363547]}},{"type":"Feature","properties":{"nb":"PALACIO","cn":"Mostajo de la Dehesa de Somosierra I","d":0.0,"h":0.0,"sn":"Sorbus aria"},"geometry":{"type":"Point","coordinates":[-3.573375,41.123941]}},{"type":"Feature","properties":{"nb":"PALACIO","cn":"Mostajo del Molino del Cubo]","d":0.0,"h":0.0,"sn":"Sorbus latifolia"},"geometry":{"type":"Point","coordinates":[-3.892998,40.904618]}},{"type":"Feature","properties":{"nb":"PALACIO","cn":"Nogal de La Acebeda","d":0.0,"h":0.0,"sn":"Juglans regia"},"geometry":{"type":"Point","coordinates":[-3.623889,41.088056]}},{"type":"Feature","properties":{"nb":"PALACIO","cn":"Nogal de Lozoya","d":0.0,"h":0.0,"sn":"Juglans regia"},"geometry":{"type":"Point","coordinates":[-3.795884,40.951297]}},{"type":"Feature","properties":{"nb":"PALACIO","cn":"Nogal de Olmeda de las Fuentes","d":0.0,"h":0.0,"sn":"Juglans regia"},"geometry":{"type":"Point","coordinates":[-3.218276,40.367827]}},{"type":"Feature","properties":{"nb":"PALACIO","cn":"Nogal del Pradillo","d":0.0,"h":0.0,"sn":"Juglans regia"},"geometry":{"type":"Point","coordinates":[-3.444358,41.012568]}},{"type":"Feature","properties":{"nb":"PALACIO","cn":"Nogal del Puente","d":0.0,"h":0.0,"sn":"Juglans regia"},"geometry":{"type":"Point","coordinates":[-3.451018,41.015049]}},{"type":"Feature","properties":{"nb":"PALACIO","cn":"Olivo de Las Cruces","d":0.0,"h":0.0,"sn":"Olea europaea"},"geometry":{"type":"Point","coordinates":[-3.39436,40.09903]}},{"type":"Feature","properties":{"nb":"PALACIO","cn":"Olivo Santo","d":0.0,"h":0.0,"sn":"Olea europaea"},"geometry":{"type":"Point","coordinates":[-3.202153,40.312781]}},{"type":"Feature","properties":{"nb":"PALACIO","cn":"Olmo de Los Llanillos","d":0.0,"h":0.0,"sn":"Ulmus laevis"},"geometry":{"type":"Point","coordinates":[-4.176203,40.59248]}},{"type":"Feature","properties":{"nb":"PALACIO","cn":"Olmo de Nuevo Baztán","d":0.0,"h":0.0,"sn":"Ulmus minor"},"geometry":{"type":"Point","coordinates":[-3.243747,40.364961]}},{"type":"Feature","properties":{"nb":"PALACIO","cn":"Olmo del Ayuntamiento","d":0.0,"h":0.0,"sn":"Ulmus minor"},"geometry":{"type":"Point","coordinates":[-4.089215,40.672474]}},{"type":"Feature","properties":{"nb":"PALACIO","cn":"Olmo del Camino de la Estación","d":0.0,"h":0.0,"sn":"Ulmus minor"},"geometry":{"type":"Point","coordinates":[-3.615071,40.033902]}},{"type":"Feature","properties":{"nb":"PALACIO","cn":"Olmo del Cáucaso del Real Jardín Botánico","d":0.0,"h":0.0,"sn":"Zelkova carpinifolia"},"geometry":{"type":"Point","coordinates":[-3.690454,40.411704]}},{"type":"Feature","properties":{"nb":"PALACIO","cn":"Olmo del Parque Sindical","d":0.0,"h":0.0,"sn":"Ulmus minor"},"geometry":{"type":"Point","coordinates":[-3.745764,40.460102]}},{"type":"Feature","properties":{"nb":"PALACIO","cn":"Olmo El Pantalones","d":0.0,"h":0.0,"sn":"Ulmus minor"},"geometry":{"type":"Point","coordinates":[-3.691188,40.411667]}},{"type":"Feature","properties":{"nb":"PALACIO","cn":"Palmera Canaria del Real Jardín Botánico","d":0.0,"h":0.0,"sn":"Phoenix canariensis"},"geometry":{"type":"Point","coordinates":[-3.689765,40.411322]}},{"type":"Feature","properties":{"nb":"PALACIO","cn":"Parrotia del Real Jardín Botánico","d":0.0,"h":0.0,"sn":"Parrotia persica"},"geometry":{"type":"Point","coordinates":[-3.690412,40.412008]}},{"type":"Feature","properties":{"nb":"PALACIO","cn":"Peral de La Hiruela","d":0.0,"h":0.0,"sn":"Pyrus communis"},"geometry":{"type":"Point","coordinates":[-3.456117,41.076173]}},{"type":"Feature","properties":{"nb":"PALACIO","cn":"Pino Albar de El Chaparral","d":0.0,"h":0.0,"sn":"Pinus sylvestris"},"geometry":{"type":"Point","coordinates":[-3.494443,41.106434]}},{"type":"Feature","properties":{"nb":"PALACIO","cn":"Pino Albar de la Cadena","d":0.0,"h":0.0,"sn":"Pinus sylvestris"},"geometry":{"type":"Point","coordinates":[-4.017576,40.761633]}},{"type":"Feature","properties":{"nb":"PALACIO","cn":"Pino Albar de la Pinosilla","d":0.0,"h":0.0,"sn":"Pinus sylvestris"},"geometry":{"type":"Point","coordinates":[-4.1494,40.685384]}},{"type":"Feature","properties":{"nb":"PALACIO","cn":"Pino Carrasco de Buenamesón","d":0.0,"h":0.0,"sn":"Pinus halepensis"},"geometry":{"type":"Point","coordinates":[-3.203833,40.082594]}},{"type":"Feature","properties":{"nb":"PALACIO","cn":"Pino Carrasco de la Rosaleda del Retiro","d":0.0,"h":0.0,"sn":"Pinus halepensis"},"geometry":{"type":"Point","coordinates":[-3.680866,40.411016]}},{"type":"Feature","properties":{"nb":"PALACIO","cn":"Pino carrasco del Jardín del Palacio de Goyeneche","d":0.0,"h":0.0,"sn":"Pinus halepensis"},"geometry":{"type":"Point","coordinates":[-3.244755,40.364824]}},{"type":"Feature","properties":{"nb":"PALACIO","cn":"Pino Carrasco del Real Jardín Botánico","d":0.0,"h":0.0,"sn":"Pinus halepensis"},"geometry":{"type":"Point","coordinates":[-3.690581,40.410802]}},{"type":"Feature","properties":{"nb":"PALACIO","cn":"Pino de Hoyo Claveles","d":0.0,"h":0.0,"sn":"Pinus sylvestris"},"geometry":{"type":"Point","coordinates":[-3.926385,40.869674]}},{"type":"Feature","properties":{"nb":"PALACIO","cn":"Pino de Lord Weymouth de La Cebedilla","d":0.0,"h":0.0,"sn":"Pinus strobus"},"geometry":{"type":"Point","coordinates":[-3.829085,40.971722]}},{"type":"Feature","properties":{"nb":"PALACIO","cn":"Pino de Sabine de la Casita de Arriba I","d":0.0,"h":0.0,"sn":"Pinus sabiniana"},"geometry":{"type":"Point","coordinates":[-4.158476,40.585207]}},{"type":"Feature","properties":{"nb":"PALACIO","cn":"Pino Laricio de La Hilera","d":0.0,"h":0.0,"sn":"Pinus nigra"},"geometry":{"type":"Point","coordinates":[-4.158704,40.662769]}},{"type":"Feature","properties":{"nb":"PALACIO","cn":"Pino Negral de San Antonio","d":0.0,"h":0.0,"sn":"Pinus pinaster"},"geometry":{"type":"Point","coordinates":[-4.216457,40.510011]}},{"type":"Feature","properties":{"nb":"PALACIO","cn":"Pino Piñonero del Olivar","d":0.0,"h":0.0,"sn":"Pinus pinea"},"geometry":{"type":"Point","coordinates":[-3.446218,40.466153]}},{"type":"Feature","properties":{"nb":"PALACIO","cn":"Pino Piñonero del Vivero","d":0.0,"h":0.0,"sn":"Pinus pinea"},"geometry":{"type":"Point","coordinates":[-3.573383,40.046671]}},{"type":"Feature","properties":{"nb":"PALACIO","cn":"Pinsapo de la Casita del Príncipe","d":0.0,"h":0.0,"sn":"Abies pinsapo"},"geometry":{"type":"Point","coordinates":[-4.135784,40.584602]}},{"type":"Feature","properties":{"nb":"PALACIO","cn":"Plátano de la Huerta del Infante","d":0.0,"h":0.0,"sn":"Platanus x hispanica"},"geometry":{"type":"Point","coordinates":[-3.609395,40.040704]}},{"type":"Feature","properties":{"nb":"PALACIO","cn":"Plátano de la Trinidad","d":0.0,"h":0.0,"sn":"Platanus x hispanica"},"geometry":{"type":"Point","coordinates":[-3.590948,40.039738]}},{"type":"Feature","properties":{"nb":"PALACIO","cn":"Plátano de los Pabellones","d":0.0,"h":0.0,"sn":"Platanus x hispanica"},"geometry":{"type":"Point","coordinates":[-3.603321,40.041786]}},{"type":"Feature","properties":{"nb":"PALACIO","cn":"Plátano de San Antonio de la Florida","d":0.0,"h":0.0,"sn":"Platanus x hispanica"},"geometry":{"type":"Point","coordinates":[-3.72614,40.426159]}},{"type":"Feature","properties":{"nb":"PALACIO","cn":"Plátanos de la Tronca","d":0.0,"h":0.0,"sn":"Platanus x hispanica +  Pl. Orientalis"},"geometry":{"type":"Point","coordinates":[-3.609866,40.040787]}},{"type":"Feature","properties":{"nb":"PALACIO","cn":"Quejigo de la Dehesa Milla","d":0.0,"h":0.0,"sn":"Quercus faginea"},"geometry":{"type":"Point","coordinates":[-4.118368,40.373279]}},{"type":"Feature","properties":{"nb":"PALACIO","cn":"Quejigo de San Norberto","d":0.0,"h":0.0,"sn":"Quercus faginea"},"geometry":{"type":"Point","coordinates":[-4.115506,40.362178]}},{"type":"Feature","properties":{"nb":"PALACIO","cn":"Quejigo del Robledal","d":0.0,"h":0.0,"sn":"Quercus faginea"},"geometry":{"type":"Point","coordinates":[-3.128894,40.246256]}},{"type":"Feature","properties":{"nb":"PALACIO","cn":"Rebollo de la Dehesa","d":0.0,"h":0.0,"sn":"Quercus pyrenaica"},"geometry":{"type":"Point","coordinates":[-3.440293,41.079135]}},{"type":"Feature","properties":{"nb":"PALACIO","cn":"Rebollo de la Gallina","d":0.0,"h":0.0,"sn":"Quercus pyrenaica"},"geometry":{"type":"Point","coordinates":[-3.766343,40.979267]}},{"type":"Feature","properties":{"nb":"PALACIO","cn":"Rebollo de La Herrería","d":0.0,"h":0.0,"sn":"Quercus pyrenaica"},"geometry":{"type":"Point","coordinates":[-4.160618,40.580813]}},{"type":"Feature","properties":{"nb":"PALACIO","cn":"Rebollo de La Maleza","d":0.0,"h":0.0,"sn":"Quercus pyrenaica"},"geometry":{"type":"Point","coordinates":[-3.775315,40.979271]}},{"type":"Feature","properties":{"nb":"PALACIO","cn":"Rebollo de la Mata del Pañuelo","d":0.0,"h":0.0,"sn":"Quercus pyrenaica"},"geometry":{"type":"Point","coordinates":[-3.900163,40.913755]}},{"type":"Feature","properties":{"nb":"PALACIO","cn":"Rebollo de las Puentecillas","d":0.0,"h":0.0,"sn":"Quercus pyrenaica"},"geometry":{"type":"Point","coordinates":[-3.452741,41.015169]}},{"type":"Feature","properties":{"nb":"PALACIO","cn":"Rebollo del Palancar","d":0.0,"h":0.0,"sn":"Quercus pyrenaica"},"geometry":{"type":"Point","coordinates":[-3.846714,40.880053]}},{"type":"Feature","properties":{"nb":"PALACIO","cn":"Roble Bastián","d":0.0,"h":0.0,"sn":"Quercus pyrenaica"},"geometry":{"type":"Point","coordinates":[-3.460075,41.072546]}},{"type":"Feature","properties":{"nb":"PALACIO","cn":"Roble de El Chaparral","d":0.0,"h":0.0,"sn":"Quercus petraea"},"geometry":{"type":"Point","coordinates":[-3.499679,41.108213]}},{"type":"Feature","properties":{"nb":"PALACIO","cn":"Roble del Arroyo de la Redonda","d":0.0,"h":0.0,"sn":"Quercus petraea"},"geometry":{"type":"Point","coordinates":[-3.918346,40.903603]}},{"type":"Feature","properties":{"nb":"PALACIO","cn":"Roble del Puente de Hierro","d":0.0,"h":0.0,"sn":"Quercus robur"},"geometry":{"type":"Point","coordinates":[-3.758483,40.411733]}},{"type":"Feature","properties":{"nb":"PALACIO","cn":"Sabina Albar de los Canalizos","d":0.0,"h":0.0,"sn":"Juniperus thurifera"},"geometry":{"type":"Point","coordinates":[-3.75889,40.956662]}},{"type":"Feature","properties":{"nb":"PALACIO","cn":"Sabina del Portacho","d":0.0,"h":0.0,"sn":"Juniperus thurifera"},"geometry":{"type":"Point","coordinates":[-4.218792,40.499477]}},{"type":"Feature","properties":{"nb":"PALACIO","cn":"Sabina El Enebro","d":0.0,"h":0.0,"sn":"Juniperus thurifera"},"geometry":{"type":"Point","coordinates":[-3.86628,40.42481]}},{"type":"Feature","properties":{"nb":"PALACIO","cn":"Salguera del Molino del Villar","d":0.0,"h":0.0,"sn":"Salix alba"},"geometry":{"type":"Point","coordinates":[-3.531307,40.94939]}},{"type":"Feature","properties":{"nb":"PALACIO","cn":"Sauce de la Galapaguera I","d":0.0,"h":0.0,"sn":"Salix fragilis"},"geometry":{"type":"Point","coordinates":[-3.886765,40.888538]}},{"type":"Feature","properties":{"nb":"PALACIO","cn":"Sauce de la Galapaguera II","d":0.0,"h":0.0,"sn":"Salix fragilis"},"geometry":{"type":"Point","coordinates":[-3.886676,40.888558]}},{"type":"Feature","properties":{"nb":"PALACIO","cn":"Secuoya Gigante de la Casita del Príncipe I","d":0.0,"h":0.0,"sn":"Sequoiadendron giganteum"},"geometry":{"type":"Point","coordinates":[-4.136277,40.584416]}},{"type":"Feature","properties":{"nb":"PALACIO","cn":"Secuoya Gigante de la Casita del Príncipe II","d":0.0,"h":0.0,"sn":"Sequoiadendron giganteum"},"geometry":{"type":"Point","coordinates":[-4.137318,40.584107]}},{"type":"Feature","properties":{"nb":"PALACIO","cn":"Taray del Gallo","d":0.0,"h":0.0,"sn":"Tamarix gallica"},"geometry":{"type":"Point","coordinates":[-3.291492,40.521925]}},{"type":"Feature","properties":{"nb":"PALACIO","cn":"Tejo de El Chaparral I","d":0.0,"h":0.0,"sn":"Taxus baccata"},"geometry":{"type":"Point","coordinates":[-3.504614,41.108973]}},{"type":"Feature","properties":{"nb":"PALACIO","cn":"Tejo de El Chaparral II","d":0.0,"h":0.0,"sn":"Taxus baccata"},"geometry":{"type":"Point","coordinates":[-3.503605,41.11691]}},{"type":"Feature","properties":{"nb":"PALACIO","cn":"Tejo de la Roca","d":0.0,"h":0.0,"sn":"Taxus baccata"},"geometry":{"type":"Point","coordinates":[-3.902443,40.821784]}},{"type":"Feature","properties":{"nb":"PALACIO","cn":"Tejo de la Senda","d":0.0,"h":0.0,"sn":"Taxus baccata"},"geometry":{"type":"Point","coordinates":[-3.777755,40.874192]}},{"type":"Feature","properties":{"nb":"PALACIO","cn":"Tejo del Palacio de Velázquez del Retiro","d":0.0,"h":0.0,"sn":"Taxus baccata"},"geometry":{"type":"Point","coordinates":[-3.681358,40.41525]}},{"type":"Feature","properties":{"nb":"PALACIO","cn":"Tejo del Real Jardín Botánico","d":0.0,"h":0.0,"sn":"Taxus baccata"},"geometry":{"type":"Point","coordinates":[-3.691527,40.411644]}},{"type":"Feature","properties":{"nb":"PALACIO","cn":"Tejo del Sestil del Maillo","d":0.0,"h":0.0,"sn":"Taxus baccata"},"geometry":{"type":"Point","coordinates":[-3.778687,40.876459]}},{"type":"Feature","properties":{"nb":"PALACIO","cn":"Tilo de Canencia","d":0.0,"h":0.0,"sn":"Tilia platyphyllos"},"geometry":{"type":"Point","coordinates":[-3.7371,40.905058]}},{"type":"Feature","properties":{"nb":"PALACIO","cn":"Tilo de la Mano","d":0.0,"h":0.0,"sn":"Tilia x europaea"},"geometry":{"type":"Point","coordinates":[-4.162448,40.564546]}},{"type":"Feature","properties":{"nb":"PALACIO","cn":"Washingtonia de la Plaza de la Palmera","d":0.0,"h":0.0,"sn":"Washingtonia filifera"},"geometry":{"type":"Point","coordinates":[-3.742777,40.382763]}}]}