{"type":"FeatureCollection","properties":{"district_code":"99","district_name":"OTROS MUNICIPIOS","tree_count":34},"features":[{"type":"Feature","properties":{"nb":"POZUELO DE ALARCÓN","cn":"Pino piñonero","d":9.0,"h":1.5,"sn":"Pinus pinea"},"geometry":{"type":"Point","coordinates":[-3.780719,40.395379]}},{"type":"Feature","properties":{"nb":"POZUELO DE ALARCÓN","cn":"Ciprés de Leyland/x Cupressocyparis leylandii","d":25.0,"h":2.5,"sn":"x Cupressocyparis x leylandii"},"geometry":{"type":"Point","coordinates":[-3.780545,40.395512]}},{"type":"Feature","properties":{"nb":"POZUELO DE ALARCÓN","cn":"Pino piñonero","d":60.0,"h":5.5,"sn":"Pinus pinea"},"geometry":{"type":"Point","coordinates":[-3.780368,40.395716]}},{"type":"Feature","properties":{"nb":"POZUELO DE ALARCÓN","cn":"Pino piñonero","d":136.0,"h":10.0,"sn":"Pinus pinea"},"geometry":{"type":"Point","coordinates":[-3.789406,40.444764]}},{"type":"Feature","properties":{"nb":"POZUELO DE ALARCÓN","cn":"Pino piñonero","d":133.0,"h":9.75,"sn":"Pinus pinea"},"geometry":{"type":"Point","coordinates":[-3.789252,40.444953]}},{"type":"Feature","properties":{"nb":"POZUELO DE ALARCÓN","cn":"Ciprés de Arizona","d":144.0,"h":10.0,"sn":"Cupressus arizonica"},"geometry":{"type":"Point","coordinates":[-3.789167,40.444948]}},{"type":"Feature","properties":{"nb":"POZUELO DE ALARCÓN","cn":"Pino piñonero","d":134.0,"h":10.5,"sn":"Pinus pinea"},"geometry":{"type":"Point","coordinates":[-3.789122,40.445]}},{"type":"Feature","properties":{"nb":"POZUELO DE ALARCÓN","cn":"Pino carrasco","d":142.0,"h":12.0,"sn":"Pinus halepensis"},"geometry":{"type":"Point","coordinates":[-3.784611,40.444213]}},{"type":"Feature","properties":{"nb":"POZUELO DE ALARCÓN","cn":"Ciprés de Monterrey","d":25.0,"h":3.0,"sn":"Cupressus macrocarpa"},"geometry":{"type":"Point","coordinates":[-3.780611,40.395476]}},{"type":"Feature","properties":{"nb":"POZUELO DE ALARCÓN","cn":"Pino carrasco","d":142.0,"h":12.0,"sn":"Pinus halepensis"},"geometry":{"type":"Point","coordinates":[-3.784761,40.444322]}},{"type":"Feature","properties":{"nb":"POZUELO DE ALARCÓN","cn":"Ciprés común","d":70.0,"h":11.0,"sn":"Cupressus sempervirens"},"geometry":{"type":"Point","coordinates":[-3.7894,40.444854]}},{"type":"Feature","properties":{"nb":"POZUELO DE ALARCÓN","cn":"Pino piñonero","d":162.0,"h":11.0,"sn":"Pinus pinea"},"geometry":{"type":"Point","coordinates":[-3.789361,40.444903]}},{"type":"Feature","properties":{"nb":"POZUELO DE ALARCÓN","cn":"Ciprés común","d":42.0,"h":4.0,"sn":"Cupressus sempervirens"},"geometry":{"type":"Point","coordinates":[-3.789247,40.444861]}},{"type":"Feature","properties":{"nb":"POZUELO DE ALARCÓN","cn":"Arce negundo","d":80.0,"h":9.0,"sn":"Acer negundo"},"geometry":{"type":"Point","coordinates":[-3.789198,40.445123]}},{"type":"Feature","properties":{"nb":"POZUELO DE ALARCÓN","cn":"Pino carrasco","d":110.0,"h":10.5,"sn":"Pinus halepensis"},"geometry":{"type":"Point","coordinates":[-3.784717,40.44427]}},{"type":"Feature","properties":{"nb":"POZUELO DE ALARCÓN","cn":"Arce negundo","d":105.0,"h":10.0,"sn":"Acer negundo"},"geometry":{"type":"Point","coordinates":[-3.789017,40.445178]}},{"type":"Feature","properties":{"nb":"POZUELO DE ALARCÓN","cn":"Morera blanca 'Fruitless'","d":18.0,"h":6.0,"sn":"Morus alba 'Fruitless'"},"geometry":{"type":"Point","coordinates":[-3.780175,40.395785]}},{"type":"Feature","properties":{"nb":"POZUELO DE ALARCÓN","cn":"Ciprés de Leyland/x Cupressocyparis leylandii","d":36.0,"h":4.5,"sn":"x Cupressocyparis x leylandii"},"geometry":{"type":"Point","coordinates":[-3.780447,40.395695]}},{"type":"Feature","properties":{"nb":"POZUELO DE ALARCÓN","cn":"Pino piñonero","d":15.0,"h":2.0,"sn":"Pinus pinea"},"geometry":{"type":"Point","coordinates":[-3.780621,40.395574]}},{"type":"Feature","properties":{"nb":"POZUELO DE ALARCÓN","cn":"Pino piñonero","d":127.0,"h":10.5,"sn":"Pinus pinea"},"geometry":{"type":"Point","coordinates":[-3.789285,40.444905]}},{"type":"Feature","properties":{"nb":"POZUELO DE ALARCÓN","cn":"Pino piñonero","d":78.0,"h":5.5,"sn":"Pinus pinea"},"geometry":{"type":"Point","coordinates":[-3.780466,40.395626]}},{"type":"Feature","properties":{"nb":"POZUELO DE ALARCÓN","cn":"Pino piñonero","d":162.0,"h":9.0,"sn":"Pinus pinea"},"geometry":{"type":"Point","coordinates":[-3.789294,40.444815]}},{"type":"Feature","properties":{"nb":"POZUELO DE ALARCÓN","cn":"Pino piñonero","d":78.0,"h":5.5,"sn":"Pinus pinea"},"geometry":{"type":"Point","coordinates":[-3.780817,40.39519]}},{"type":"Feature","properties":{"nb":"POZUELO DE ALARCÓN","cn":"Pino piñonero","d":55.0,"h":4.0,"sn":"Pinus pinea"},"geometry":{"type":"Point","coordinates":[-3.780738,40.395437]}},{"type":"Feature","properties":{"nb":"POZUELO DE ALARCÓN","cn":"Ciprés de Monterrey","d":36.0,"h":2.7,"sn":"Cupressus macrocarpa"},"geometry":{"type":"Point","coordinates":[-3.780566,40.39563]}},{"type":"Feature","properties":{"nb":"POZUELO DE ALARCÓN","cn":"Pino piñonero","d":137.0,"h":8.0,"sn":"Pinus pinea"},"geometry":{"type":"Point","coordinates":[-3.789172,40.444862]}},{"type":"Feature","properties":{"nb":"POZUELO DE ALARCÓN","cn":"Pino piñonero","d":111.0,"h":9.0,"sn":"Pinus pinea"},"geometry":{"type":"Point","coordinates":[-3.789132,40.444909]}},{"type":"Feature","properties":{"nb":"POZUELO DE ALARCÓN","cn":"Arce negundo","d":113.0,"h":10.0,"sn":"Acer negundo"},"geometry":{"type":"Point","coordinates":[-3.789143,40.445129]}},{"type":"Feature","properties":{"nb":"POZUELO DE ALARCÓN","cn":"Pino piñonero","d":143.0,"h":9.5,"sn":"Pinus pinea"},"geometry":{"type":"Point","coordinates":[-3.789371,40.444813]}},{"type":"Feature","properties":{"nb":"POZUELO DE ALARCÓN","cn":"Ciprés común","d":50.0,"h":5.0,"sn":"Cupressus sempervirens"},"geometry":{"type":"Point","coordinates":[-3.784657,40.444269]}},{"type":"Feature","properties":{"nb":"POZUELO DE ALARCÓN","cn":"Pino carrasco","d":10.0,"h":10.0,"sn":"Pinus halepensis"},"geometry":{"type":"Point","coordinates":[-3.784653,40.444163]}},{"type":"Feature","properties":{"nb":"POZUELO DE ALARCÓN","cn":"Pino carrasco","d":144.0,"h":12.0,"sn":"Pinus halepensis"},"geometry":{"type":"Point","coordinates":[-3.784746,40.444213]}},{"type":"Feature","properties":{"nb":"POZUELO DE ALARCÓN","cn":"Pino carrasco","d":153.0,"h":13.0,"sn":"Pinus halepensis"},"geometry":{"type":"Point","coordinates":[-3.784597,40.444315]}},{"type":"Feature","properties":{"nb":"POZUELO DE ALARCÓN","cn":"Ciprés común","d":53.0,"h":7.5,"sn":"Cupressus sempervirens"},"geometry":{"type":"Point","coordinates":[-3.784716,40.44416]}}]}